GLOBALSTAR M045         
1 25676U 99019A   25331.83541341 -.00000057  00000+0  32219-3 0  9999
2 25676  51.9947 198.8349 0001042  86.5044 354.6526 12.27069207213484
GLOBALSTAR M019         
1 25677U 99019B   25331.74143149 -.00000202  00000+0 -11718-2 0  9997
2 25677  51.9897 340.9778 0001195 294.1162 237.9689 12.13877325205007
GLOBALSTAR M044         
1 25678U 99019C   25331.93111628 -.00000051  00000+0  45695-3 0  9999
2 25678  51.9987 312.2952 0006393 356.8521  37.9538 11.90260092190829
GLOBALSTAR M042         
1 25679U 99019D   25331.66640706 -.00000064  00000+0  26682-3 0  9993
2 25679  52.0032 309.4452 0002854 282.9777 248.0353 12.22092062205245
GLOBALSTAR M025         
1 25770U 99031A   25331.78018362 -.00000060  00000+0  22552-3 0  9997
2 25770  51.9781 140.2947 0003173  71.2653 301.8769 11.22558611500088
GLOBALSTAR M049         
1 25771U 99031B   25331.84332135 -.00000003  00000+0  21592-2 0  9991
2 25771  51.9837 183.1382 0002003 311.6916  48.3708 11.12123566135631
GLOBALSTAR M047         
1 25772U 99031C   25331.78316004 -.00000063  00000+0  17498-3 0  9999
2 25772  51.9786 164.6126 0016295 179.2115 180.8718 11.31931604489638
GLOBALSTAR M052         
1 25773U 99031D   25331.91909128 -.00000075  00000+0 -29735-3 0  9991
2 25773  51.9881 289.3369 0002964  73.9945 351.0226 11.15061835496779
